ONEWEB-0709             
1 55172U 23004AJ  24337.20232018  .00000538  00000+0  14830-2 0  9999
2 55172  87.8881 133.0775 0000524 121.3430 238.7749 13.11418394 92212
ONEWEB-0710             
1 55173U 23004AK  24337.35206831  .00000030  00000+0  43826-4 0  9996
2 55173  87.9082 117.8146 0001618 101.4431 258.6882 13.17649978 93595
ONEWEB-0711             
1 55174U 23004AL  24337.40239517 -.00000270  00000+0 -79645-3 0  9995
2 55174  87.8888 133.0065 0002146 112.5561 247.5794 13.11418447 92208
ONEWEB-0713             
1 55175U 23004AM  24337.42106030  .00000441  00000+0  12086-2 0  9994
2 55175  87.8879 133.0105 0001771 102.2249 257.9077 13.11418164 92199
ONEWEB-0715             
1 55176U 23004AN  24337.72115309  .00000212  00000+0  56331-3 0  9995
2 55176  87.8890 132.9512 0001211 107.8187 252.3073 13.11418176 92282
ONEWEB-0716             
1 55177U 23004AP  24337.34531825  .00000069  00000+0  14389-3 0  9996
2 55177  87.9086 117.8111 0001640  91.3530 268.7789 13.17649318 93593
ONEWEB-0717             
1 55178U 23004AQ  24337.32843439  .00000120  00000+0  27692-3 0  9991
2 55178  87.9081 117.7765 0002040 121.7787 238.3544 13.17651443 93640
ONEWEB-0719             
1 55179U 23004AR  24337.79418554  .00000107  00000+0  24192-3 0  9996
2 55179  87.9091 117.6686 0001746  93.0553 267.0778 13.17650223 93651
ONEWEB-0530             
1 55796U 23029A   24337.42961314  .00000082  00000+0  16999-3 0  9993
2 55796  87.9274  26.2416 0002297 106.0286 254.1100 13.20770638 86997
ONEWEB-0534             
1 55797U 23029B   24337.41698883  .00000100  00000+0  21503-3 0  9999
2 55797  87.9272  26.2512 0001855  93.8970 266.2375 13.20774059 86994
ONEWEB-0556             
1 55798U 23029C   24337.42330653  .00000069  00000+0  13791-3 0  9993
2 55798  87.9271  26.2426 0002703  91.4396 268.7047 13.20772385 86990
ONEWEB-0562             
1 55799U 23029D   24337.41068681  .00000162  00000+0  36727-3 0  9990
2 55799  87.9293  26.2372 0002910 101.9170 258.2290 13.20771681 86994
ONEWEB-0563             
1 55800U 23029E   24337.40437238  .00000146  00000+0  32796-3 0  9994
2 55800  87.9269  26.2529 0001795  85.9653 274.1685 13.20771007 86987
ONEWEB-0564             
1 55801U 23029F   24337.39804667  .00000118  00000+0  25814-3 0  9999
2 55801  87.9279  26.2413 0002213 103.5189 256.6191 13.20770492 86993
ONEWEB-0638             
1 55802U 23029G   24337.41547987  .00000174  00000+0  43421-3 0  9998
2 55802  87.9026  41.4729 0002272  90.9968 269.1422 13.14502883 85593
ONEWEB-0639             
1 55803U 23029H   24337.22945949  .00002048  00000+0  50819-2 0  9998
2 55803  87.9186  56.7230 0000924  44.6393 315.4814 13.19742191 84780
ONEWEB-0640             
1 55804U 23029J   24337.42499091  .00000048  00000+0  95002-4 0  9996
2 55804  87.9025  41.4633 0002166  80.0883 280.0491 13.14503208 85619
ONEWEB-0641             
1 55805U 23029K   24337.52800383  .00000030  00000+0  41538-4 0  9994
2 55805  87.9189  56.6414 0001510  96.7050 263.4254 13.19723580 84835
ONEWEB-0642             
1 55806U 23029L   24337.52327506  .00000027  00000+0  33942-4 0  9992
2 55806  87.9194  56.6717 0000954  71.2304 288.8933 13.19725573 84827
ONEWEB-0643             
1 55807U 23029M   24337.47097314  .00000280  00000+0  71987-3 0  9999
2 55807  87.9020  41.4336 0000878 101.0624 259.0605 13.14503669 85593
ONEWEB-0644             
1 55808U 23029N   24337.51854112  .00000031  00000+0  44885-4 0  9994
2 55808  87.9193  56.6722 0001266  90.0077 270.1200 13.19726901 84824
ONEWEB-0645             
1 55809U 23029P   24337.51458835 -.00001552  00000+0 -39097-2 0  9995
2 55809  87.9189  56.6720 0002067  91.8968 268.2401 13.19711861 84826
ONEWEB-0646             
1 55810U 23029Q   24337.46877793  .00000100  00000+0  21683-3 0  9998
2 55810  87.9187  56.6777 0001435  98.5846 261.5449 13.19726217 84802
ONEWEB-0648             
1 55811U 23029R   24337.13478097 -.00000121  00000+0 -36059-3 0  9995
2 55811  87.9027  41.4730 0001415  63.2222 296.9052 13.14504178 85552
ONEWEB-0649             
1 55812U 23029S   24337.50747680  .00000076  00000+0  15681-3 0  9999
2 55812  87.9195  56.6629 0001517  84.5011 275.6294 13.19724469 84844
ONEWEB-0650             
1 55813U 23029T   24337.50273126  .00000119  00000+0  26384-3 0  9999
2 55813  87.9189  56.6690 0001540  97.3799 262.7509 13.19724120 84814
ONEWEB-0652             
1 55814U 23029U   24337.42021945  .00000191  00000+0  48004-3 0  9994
2 55814  87.9021  41.4277 0001889 104.0883 256.0457 13.14502901 85566
ONEWEB-0653             
1 55815U 23029V   24337.48048512  .00000353  00000+0  91819-3 0  9992
2 55815  87.9030  41.4001 0001960  99.0471 261.0881 13.14502578 85600
ONEWEB-0654             
1 55816U 23029W   24337.17124158 -.00000051  00000+0 -17077-3 0  9991
2 55816  87.9027  41.4672 0002098 107.0705 253.0655 13.14502315 85580
ONEWEB-0656             
1 55817U 23029X   24337.39173473  .00000157  00000+0  35397-3 0  9990
2 55817  87.9278  26.1840 0002231 113.5121 246.6247 13.20771431 86994
ONEWEB-0657             
1 55818U 23029Y   24337.49800443  .00000111  00000+0  24375-3 0  9990
2 55818  87.9188  56.6749 0001816 130.6108 229.5183 13.19725265 84825
ONEWEB-0658             
1 55819U 23029Z   24337.49325561  .00000171  00000+0  39525-3 0  9993
2 55819  87.9185  56.6102 0001234  90.4632 269.6642 13.19725521 84836
ONEWEB-0660             
1 55820U 23029AA  24337.45353197 -.00000072  00000+0 -22761-3 0  9993
2 55820  87.9023  41.3843 0001800  87.2144 272.9192 13.14503688 85609
ONEWEB-0661             
1 55821U 23029AB  24337.48842679  .00000332  00000+0  86101-3 0  9990
2 55821  87.9027  41.4458 0001938  87.7682 272.3669 13.14503148 85593
ONEWEB-0662             
1 55822U 23029AC  24336.91436209 -.00000115  00000+0 -34370-3 0  9998
2 55822  87.9022  41.5668 0001699  87.1693 272.9632 13.14502512 86279
ONEWEB-0663             
1 55823U 23029AD  24337.38113636  .00000083  00000+0  17122-3 0  9995
2 55823  87.9269  26.2453 0001770  83.9126 276.2209 13.20815579 86982
ONEWEB-0664             
1 55824U 23029AE  24336.84881570  .00000196  00000+0  44948-3 0  9996
2 55824  87.9271  26.3671 0002319  94.1768 265.9630 13.20772388 86911
ONEWEB-0665             
1 55825U 23029AF  24337.48524169  .00000269  00000+0  69147-3 0  9995
2 55825  87.9030  41.4211 0001672  91.2672 268.8650 13.14501232 85617
ONEWEB-0666             
1 55826U 23029AG  24337.37278738 -.00000016  00000+0 -72265-4 0  9990
2 55826  87.9276  26.2527 0002051 107.5999 252.5359 13.20772294 86999
ONEWEB-0667             
1 55827U 23029AH  24337.44225450  .00000986  00000+0  23920-2 0  9998
2 55827  87.9276  26.1718 0001759  92.2577 267.8757 13.20764203 86999
ONEWEB-0669             
1 55828U 23029AJ  24337.43750406  .00000123  00000+0  27166-3 0  9992
2 55828  87.9270  26.2093 0002539 107.2143 252.9268 13.20770353 86999
ONEWEB-0670             
1 55829U 23029AK  24337.46304232  .00000121  00000+0  29315-3 0  9994
2 55829  87.9027  41.4369 0002101  89.1790 270.9580 13.14502737 85635
ONEWEB-0671             
1 55830U 23029AL  24337.48851823  .00000119  00000+0  26607-3 0  9999
2 55830  87.9178  56.6723 0001964  92.6294 267.5063 13.19724491 84815
ONEWEB-0672             
1 55831U 23029AM  24337.43276179  .00000068  00000+0  13579-3 0  9997
2 55831  87.9271  26.1949 0001944 108.5242 251.6102 13.20769728 86993
ONEWEB-0673             
1 55832U 23029AN  24337.46482236  .00000005  00000+0 -19118-4 0  9992
2 55832  87.9201  56.6430 0001465  96.3824 263.7475 13.19725476 84814
ONEWEB-0674             
1 55833U 23029AP  24337.43133637 -.00000056  00000+0 -18430-3 0  9990
2 55833  87.9042  41.4403 0002237  89.2481 270.8905 13.14502978 85619
ONEWEB-0675             
1 55834U 23029AQ  24337.48062765  .00000133  00000+0  30112-3 0  9994
2 55834  87.9194  56.6796 0001509 113.7190 246.4101 13.19725655 84836
ONEWEB-0720             
1 55835U 23029AR  24337.47272854  .00000217  00000+0  50890-3 0  9994
2 55835  87.9181  56.6794 0001516  86.3486 273.7820 13.19725967 84750
ONEWEB-0537             
1 56046U 23043A   24337.27306883  .00000005  00000+0 -19844-4 0  9994
2 56046  87.9082 340.7109 0001711  98.0541 262.0784 13.16592022 85023
ONEWEB-0538             
1 56047U 23043B   24337.41873680 -.00000017  00000+0 -76920-4 0  9997
2 56047  87.9078 340.7027 0001495  90.8958 269.2344 13.16592363 85051
ONEWEB-0546             
1 56048U 23043C   24337.25407993  .00000005  00000+0 -19930-4 0  9994
2 56048  87.9089 340.7024 0001976 114.3979 245.7359 13.16591664 85025
ONEWEB-0547             
1 56049U 23043D   24337.50639601  .00000785  00000+0  18695-2 0  9995
2 56049  87.9290 355.8795 0001735  91.7523 268.3810 13.21829949 84026
ONEWEB-0548             
1 56050U 23043E   24337.27941998  .00000042  00000+0  75164-4 0  9998
2 56050  87.9084 340.7390 0002290  84.1358 276.0034 13.16592310 85020
ONEWEB-0549             
1 56051U 23043F   24337.34634169  .00000123  00000+0  26567-3 0  9998
2 56051  87.9302 355.9120 0001416  86.0754 274.0542 13.21824931 84005
ONEWEB-0550             
1 56052U 23043G   24337.33373726  .00000059  00000+0  11185-3 0  9995
2 56052  87.9300 355.9162 0001995  90.6837 269.4526 13.21826857 84004
ONEWEB-0551             
1 56053U 23043H   24337.39581777  .00000206  00000+0  51302-3 0  9998
2 56053  87.9081  11.0791 0001631  89.4282 270.7035 13.15548229 82539
ONEWEB-0552             
1 56054U 23043J   24337.32742531  .00000152  00000+0  33607-3 0  9997
2 56054  87.9296 355.9268 0001826  82.7317 277.4024 13.21827109 84008
ONEWEB-0553             
1 56055U 23043K   24337.71637976  .00000051  00000+0  10057-3 0  9999
2 56055  87.9084 340.6406 0001788 101.4660 258.6672 13.16595256 86007
ONEWEB-0554             
1 56056U 23043L   24337.47575109  .00000087  00000+0  19510-3 0  9994
2 56056  87.9082 340.7137 0002299  80.7407 279.3984 13.16593914 85042
